{
"type": "FeatureCollection",
"name": "featuresDaftarUsaha",
"crs": { "type": "name", "properties": { "name": "urn:ogc:def:crs:OGC:1.3:CRS84" } },
"features": [
{ "type": "Feature", "properties": { "id": 1, "nama_usaha": "Gesang Bakery", "jenis_usaha": "Kuliner", "alamat": "Jl. Desa Bayuarang, RT.6/RW.2, Banyuarang, Kec. Ngoro, Kabupaten Jombang, Jawa Timur 61473", "ltg": "-7.6626659", "bjr": "112.2328347", "telp": 6285808596665.0, "jam_operasional": "07.00–21.00", "deskripsi": "Kami adalah gesang bakery yang  merupakan salah satu tempat usaha yang menyediakan berbagai macam kebutuhan sehari - hari yang bisa anda temukan dengan fasilitas dan barang yang terbaik untuk anda,kami berada di daerah madiun kami buka setiap hari mulai 07.00 sampai pukul 21.00", "foto": "1640703145_CKs-Bakery.jpg", "fk_usaha_id": 1, "created_at": "2021-12-28T14:52:25", "updated_at": "2021-12-28T14:55:38" }, "geometry": { "type": "Point", "coordinates": [ 112.232835, -7.662666 ] } },
{ "type": "Feature", "properties": { "id": 2, "nama_usaha": "Warkop Synergi", "jenis_usaha": "Warung", "alamat": "Jl. Raya Blimbing - Pulorejo, RT.03/RW.01, Banyuarang, Kec. Ngoro, Kabupaten Jombang, Jawa Timur 61473", "ltg": "-7.5386332", "bjr": "111.1990934", "telp": 6285707111474.0, "jam_operasional": "18:30-24:00", "deskripsi": "Warung kopi sedia berbagai macam minuman dan aneka jajanan khas", "foto": "1640704064_warung-kopi-synergy.jpg", "fk_usaha_id": 2, "created_at": "2021-12-28T15:07:44", "updated_at": "2021-12-28T15:07:44" }, "geometry": { "type": "Point", "coordinates": [ 111.199093, -7.538633 ] } }
]
}
